BEIDOU-3S IGSO-1S       
1 40549U 15019A   26167.68394563 -.00000175  00000+0  00000+0 0  9996
2 40549  49.1964 295.4674 0039073 191.1195 116.0543  1.00249872 41067
NAVSTAR 74 (USA 262)    
1 40730U 15033A   26168.22104244 -.00000025  00000+0  00000+0 0  9994
2 40730  53.9824 267.0852 0115100  30.2366 330.4645  2.00556423 79991
BEIDOU-3S M2S           
1 40748U 15037A   26167.78639343 -.00000071  00000+0  00000+0 0  9991
2 40748  54.8718 302.0606 0008390 259.2390 100.6546  1.86231981 74119
BEIDOU-3S M1S           
1 40749U 15037B   26167.45695292 -.00000070  00000+0  00000+0 0  9990
2 40749  54.8681 302.0590 0003447  61.7018 298.3200  1.86254753 74116
GSAT0205 (GALILEO 9)    
1 40889U 15045A   26144.30399159 -.00000014  00000+0  00000+0 0  9994
2 40889  54.9357 222.4171 0006405 263.0112  96.9692  1.67409242 66562
GSAT0206 (GALILEO 10)   
1 40890U 15045B   26166.69756315  .00000052  00000+0  00000+0 0  9994
2 40890  54.9450 221.6455 0001791 333.6365  26.4548  1.70473766 67016
BEIDOU-3S IGSO-2S       
1 40938U 15053A   26168.63782590 -.00000132  00000+0  00000+0 0  9996
2 40938  49.2206 258.7767 0065630 192.0254 139.8497  1.00258664 39357
NAVSTAR 75 (USA 265)    
1 41019U 15062A   26167.27999492 -.00000069  00000+0  00000+0 0  9996
2 41019  56.9588  30.8461 0111891 231.0569 127.9967  2.00566870 77815
GSAT-15                 
1 41028U 15065A   26168.64391104 -.00000263  00000+0  00000+0 0  9993
2 41028   0.0687 265.0590 0004225 164.0387 162.1043  1.00272214 38802
GSAT0209 (GALILEO 12)   
1 41174U 15079A   26168.03876473 -.00000012  00000+0  00000+0 0  9992
2 41174  55.8274 101.2661 0005281 344.0306  15.9200  1.70473635 64770
GSAT0208 (GALILEO 11)   
1 41175U 15079B   26167.08588476 -.00000013  00000+0  00000+0 0  9991
2 41175  55.8253 101.2890 0004864 343.1626  16.7832  1.70473579 65175
IRNSS-1E                
1 41241U 16003A   26167.63553490 -.00000321  00000+0  00000+0 0  9994
2 41241  33.2270  59.7572 0023284 150.0842  35.4479  1.00278289 38072
NAVSTAR 76 (USA 266)    
1 41328U 16007A   26161.88615663 -.00000012  00000+0  00000+0 0  9993
2 41328  55.5202  89.7095 0096051 247.3753 111.5952  2.00551966 75717
COSMOS 2514 [GLONASS-M] 
1 41330U 16008A   26168.28516000 -.00000054  00000+0  00000+0 0  9999
2 41330  65.0216 313.0031 0011293 198.0491 161.8973  2.13102573 80627
BEIDOU-2 IGSO-6         
1 41434U 16021A   26167.12386227 -.00000150  00000+0  00000+0 0  9994
2 41434  60.2243  38.0497 0057184 231.4868 132.3999  1.00259474 37472
IRNSS-1G                
1 41469U 16027A   26167.78177464 -.00000340  00000+0  00000+0 0  9992
2 41469   5.1970  97.4824 0007546 355.0148 223.4807  1.00266276 37174
GSAT0211 (GALILEO 14)   
1 41549U 16030A   26165.45012091  .00000059  00000+0  00000+0 0  9997
2 41549  55.0959 221.7703 0002887 323.8922  36.1904  1.70473900 62624
GSAT0210 (GALILEO 13)   
1 41550U 16030B   26165.70738424  .00000058  00000+0  00000+0 0  9991
2 41550  55.0955 221.7612 0004648 244.9793 115.0745  1.70473923 62622
BEIDOU-2 G7             
1 41586U 16037A   26168.64958087 -.00000359  00000+0  00000+0 0  9997
2 41586   1.7212  69.3036 0006423 357.7680 183.1395  1.00276279  6894
EUTELSAT 117 WEST B     
1 41589U 16038B   26168.19094317 -.00000016  00000+0  00000+0 0  9998
2 41589   0.0084 149.9850 0000396 298.2334 128.9751  1.00273582 36668
GSAT0207 (GALILEO 15)   
1 41859U 16069A   26166.57222480 -.00000014  00000+0  00000+0 0  9994
2 41859  55.4979 101.1309 0005290 329.9207  30.0086  1.70473545 59378
GSAT0212 (GALILEO 16)   
1 41860U 16069B   26168.18543131 -.00000013  00000+0  00000+0 0  9993
2 41860  55.4965 101.0814 0004620   0.5608 359.4079  1.70473702 59654
GSAT0213 (GALILEO 17)   
1 41861U 16069C   26166.20630291 -.00000013  00000+0  00000+0 0  9999
2 41861  55.4975 101.1440 0004958 312.6321  47.2844  1.70474116 59488
GSAT0214 (GALILEO 18)   
1 41862U 16069D   26165.17933449 -.00000010  00000+0  00000+0 0  9993
2 41862  55.4956 101.1651 0004255 319.5735  40.3509  1.70473798 59596
SES-15                  
1 42709U 17026A   26168.50114257  .00000055  00000+0  00000+0 0  9994
2 42709   0.0183 336.2320 0000630 199.5890 141.1638  1.00269254  7432
QZS-2 (MICHIBIKI-2)     
1 42738U 17028A   26168.51850487 -.00000166  00000+0  00000+0 0  9995
2 42738  39.4268 243.1501 0759333 269.2718  81.7354  1.00283788  7629
QZS-3 (MICHIBIKI-3)     
1 42917U 17048A   26167.85260466 -.00000351  00000+0  00000+0 0  9990
2 42917   0.0688 169.8241 0001842 272.7581 256.4293  1.00276177 32259
COSMOS 2522 [GLONASS-M] 
1 42939U 17055A   26168.12295387  .00000065  00000+0  00000+0 0  9994
2 42939  64.0795 191.8866 0011608 242.1031 117.8335  2.13100885 67973
QZS-4 (MICHIBIKI-4)     
1 42965U 17062A   26167.35401075 -.00000348  00000+0  00000+0 0  9993
2 42965  40.1083 343.4922 0745175 271.7618 273.8478  1.00250450 31798
BEIDOU-3 M1             
1 43001U 17069A   26168.13305340 -.00000051  00000+0  00000+0 0  9998
2 43001  56.6923  63.0864 0010434 325.9339  34.0401  1.86230840 58607
BEIDOU-3 M2             
1 43002U 17069B   26168.07179984 -.00000051  00000+0  00000+0 0  9995
2 43002  56.6907  63.1251 0009181 351.5106   8.5146  1.86230639 58591
